{"fetched_at":"2026-07-16T17:46:07.288Z","source":"https://celestrak.org/NORAD/elements/gp.php?GROUP=planet&FORMAT=JSON","constellation":"superdove","records":[{"OBJECT_NAME":"FLOCK 4BE-17","OBJECT_ID":"2024-149AA","EPOCH":"2026-07-16T04:43:28.373088","CLASSIFICATION_TYPE":"U","MEAN_MOTION":15.40589478,"ECCENTRICITY":0.00044714,"INCLINATION":97.3771,"RA_OF_ASC_NODE":280.8101,"ARG_OF_PERICENTER":143.9783,"MEAN_ANOMALY":216.1765,"EPHEMERIS_TYPE":0,"NORAD_CAT_ID":60492,"ELEMENT_SET_NO":999,"REV_AT_EPOCH":10672,"BSTAR":0.00022728142,"MEAN_MOTION_DOT":0.00009164,"MEAN_MOTION_DDOT":0},{"OBJECT_NAME":"FLOCK 4BE-22","OBJECT_ID":"2024-149AC","EPOCH":"2026-07-16T05:12:27.866016","CLASSIFICATION_TYPE":"U","MEAN_MOTION":15.42005385,"ECCENTRICITY":0.00047794,"INCLINATION":97.3733,"RA_OF_ASC_NODE":281.0691,"ARG_OF_PERICENTER":151.0951,"MEAN_ANOMALY":209.0562,"EPHEMERIS_TYPE":0,"NORAD_CAT_ID":60494,"ELEMENT_SET_NO":999,"REV_AT_EPOCH":10677,"BSTAR":0.00020734465,"MEAN_MOTION_DOT":0.00008756,"MEAN_MOTION_DDOT":0},{"OBJECT_NAME":"FLOCK 4BE-34","OBJECT_ID":"2024-149AD","EPOCH":"2026-07-16T04:04:20.516160","CLASSIFICATION_TYPE":"U","MEAN_MOTION":15.41968076,"ECCENTRICITY":0.00050404,"INCLINATION":97.378,"RA_OF_ASC_NODE":281.862,"ARG_OF_PERICENTER":158.6487,"MEAN_ANOMALY":201.4972,"EPHEMERIS_TYPE":0,"NORAD_CAT_ID":60495,"ELEMENT_SET_NO":999,"REV_AT_EPOCH":10679,"BSTAR":0.00020483092,"MEAN_MOTION_DOT":0.00008638,"MEAN_MOTION_DDOT":0},{"OBJECT_NAME":"FLOCK 4BE-32","OBJECT_ID":"2024-149AF","EPOCH":"2026-07-16T04:23:33.381600","CLASSIFICATION_TYPE":"U","MEAN_MOTION":15.43106297,"ECCENTRICITY":0.00050294,"INCLINATION":97.3718,"RA_OF_ASC_NODE":281.4419,"ARG_OF_PERICENTER":155.7934,"MEAN_ANOMALY":204.3551,"EPHEMERIS_TYPE":0,"NORAD_CAT_ID":60497,"ELEMENT_SET_NO":999,"REV_AT_EPOCH":10680,"BSTAR":0.00022979156,"MEAN_MOTION_DOT":0.0001008,"MEAN_MOTION_DDOT":0},{"OBJECT_NAME":"FLOCK 4BE-11","OBJECT_ID":"2024-149AK","EPOCH":"2026-07-16T05:27:23.413248","CLASSIFICATION_TYPE":"U","MEAN_MOTION":15.43898149,"ECCENTRICITY":0.00050975,"INCLINATION":97.3694,"RA_OF_ASC_NODE":281.7443,"ARG_OF_PERICENTER":155.523,"MEAN_ANOMALY":204.6261,"EPHEMERIS_TYPE":0,"NORAD_CAT_ID":60501,"ELEMENT_SET_NO":999,"REV_AT_EPOCH":10683,"BSTAR":0.00021549778,"MEAN_MOTION_DOT":0.00009704,"MEAN_MOTION_DDOT":0},{"OBJECT_NAME":"FLOCK 4BE-24","OBJECT_ID":"2024-149AP","EPOCH":"2026-07-16T05:03:41.301216","CLASSIFICATION_TYPE":"U","MEAN_MOTION":15.44126319,"ECCENTRICITY":0.00051235,"INCLINATION":97.3715,"RA_OF_ASC_NODE":281.9968,"ARG_OF_PERICENTER":166.9328,"MEAN_ANOMALY":193.2054,"EPHEMERIS_TYPE":0,"NORAD_CAT_ID":60505,"ELEMENT_SET_NO":999,"REV_AT_EPOCH":10684,"BSTAR":0.00025715557,"MEAN_MOTION_DOT":0.0001169,"MEAN_MOTION_DDOT":0},{"OBJECT_NAME":"FLOCK 4BE-29","OBJECT_ID":"2024-149AT","EPOCH":"2026-07-16T04:49:20.219808","CLASSIFICATION_TYPE":"U","MEAN_MOTION":15.45530128,"ECCENTRICITY":0.0003695,"INCLINATION":97.3809,"RA_OF_ASC_NODE":283.5336,"ARG_OF_PERICENTER":174.1521,"MEAN_ANOMALY":185.9772,"EPHEMERIS_TYPE":0,"NORAD_CAT_ID":60509,"ELEMENT_SET_NO":999,"REV_AT_EPOCH":10689,"BSTAR":0.00052478252,"MEAN_MOTION_DOT":0.00025154,"MEAN_MOTION_DDOT":0},{"OBJECT_NAME":"FLOCK 4BE-2","OBJECT_ID":"2024-149AV","EPOCH":"2026-07-16T05:19:53.942304","CLASSIFICATION_TYPE":"U","MEAN_MOTION":15.55985498,"ECCENTRICITY":0.00053521,"INCLINATION":97.383,"RA_OF_ASC_NODE":285.4157,"ARG_OF_PERICENTER":170.7885,"MEAN_ANOMALY":189.3469,"EPHEMERIS_TYPE":0,"NORAD_CAT_ID":60511,"ELEMENT_SET_NO":999,"REV_AT_EPOCH":10701,"BSTAR":0.00059257083,"MEAN_MOTION_DOT":0.00041257,"MEAN_MOTION_DDOT":0},{"OBJECT_NAME":"FLOCK 4BE-13","OBJECT_ID":"2024-149AW","EPOCH":"2026-07-16T05:20:57.275232","CLASSIFICATION_TYPE":"U","MEAN_MOTION":15.42633135,"ECCENTRICITY":0.00051739,"INCLINATION":97.3719,"RA_OF_ASC_NODE":281.9503,"ARG_OF_PERICENTER":152.9426,"MEAN_ANOMALY":207.2092,"EPHEMERIS_TYPE":0,"NORAD_CAT_ID":60512,"ELEMENT_SET_NO":999,"REV_AT_EPOCH":10684,"BSTAR":0.00018456202,"MEAN_MOTION_DOT":0.0000795,"MEAN_MOTION_DDOT":0},{"OBJECT_NAME":"FLOCK 4BE-27","OBJECT_ID":"2024-149AX","EPOCH":"2026-07-16T05:01:13.939968","CLASSIFICATION_TYPE":"U","MEAN_MOTION":15.34928184,"ECCENTRICITY":0.00041511,"INCLINATION":97.3827,"RA_OF_ASC_NODE":279.0823,"ARG_OF_PERICENTER":178.8056,"MEAN_ANOMALY":181.3198,"EPHEMERIS_TYPE":0,"NORAD_CAT_ID":60513,"ELEMENT_SET_NO":999,"REV_AT_EPOCH":10659,"BSTAR":0.00015266556,"MEAN_MOTION_DOT":0.00005091,"MEAN_MOTION_DDOT":0},{"OBJECT_NAME":"FLOCK 4BE-9","OBJECT_ID":"2024-149AY","EPOCH":"2026-07-16T04:14:43.416096","CLASSIFICATION_TYPE":"U","MEAN_MOTION":15.41626243,"ECCENTRICITY":0.00037653,"INCLINATION":97.3789,"RA_OF_ASC_NODE":281.7457,"ARG_OF_PERICENTER":167.8485,"MEAN_ANOMALY":192.2853,"EPHEMERIS_TYPE":0,"NORAD_CAT_ID":60514,"ELEMENT_SET_NO":999,"REV_AT_EPOCH":10678,"BSTAR":0.00027196369,"MEAN_MOTION_DOT":0.00011368,"MEAN_MOTION_DDOT":0},{"OBJECT_NAME":"FLOCK 4BE-6","OBJECT_ID":"2024-149BA","EPOCH":"2026-07-16T03:56:30.300576","CLASSIFICATION_TYPE":"U","MEAN_MOTION":15.4033271,"ECCENTRICITY":0.00044384,"INCLINATION":97.3787,"RA_OF_ASC_NODE":281.0349,"ARG_OF_PERICENTER":170.4283,"MEAN_ANOMALY":189.7048,"EPHEMERIS_TYPE":0,"NORAD_CAT_ID":60516,"ELEMENT_SET_NO":999,"REV_AT_EPOCH":10673,"BSTAR":0.00020947411,"MEAN_MOTION_DOT":0.00008367,"MEAN_MOTION_DDOT":0},{"OBJECT_NAME":"FLOCK 4BE-14","OBJECT_ID":"2024-149BB","EPOCH":"2026-07-16T04:26:32.086176","CLASSIFICATION_TYPE":"U","MEAN_MOTION":15.41874549,"ECCENTRICITY":0.00055136,"INCLINATION":97.3693,"RA_OF_ASC_NODE":281.2204,"ARG_OF_PERICENTER":173.4498,"MEAN_ANOMALY":186.6822,"EPHEMERIS_TYPE":0,"NORAD_CAT_ID":60517,"ELEMENT_SET_NO":999,"REV_AT_EPOCH":10679,"BSTAR":0.00023061047,"MEAN_MOTION_DOT":0.00009708,"MEAN_MOTION_DDOT":0},{"OBJECT_NAME":"FLOCK 4BE-1","OBJECT_ID":"2024-149BC","EPOCH":"2026-07-16T04:05:22.360416","CLASSIFICATION_TYPE":"U","MEAN_MOTION":15.43532597,"ECCENTRICITY":0.00050386,"INCLINATION":97.3779,"RA_OF_ASC_NODE":282.5882,"ARG_OF_PERICENTER":173.0972,"MEAN_ANOMALY":187.0346,"EPHEMERIS_TYPE":0,"NORAD_CAT_ID":60518,"ELEMENT_SET_NO":999,"REV_AT_EPOCH":10684,"BSTAR":0.00023214225,"MEAN_MOTION_DOT":0.00010332,"MEAN_MOTION_DDOT":0},{"OBJECT_NAME":"FLOCK 4BE-28","OBJECT_ID":"2024-149BD","EPOCH":"2026-07-16T04:53:22.562304","CLASSIFICATION_TYPE":"U","MEAN_MOTION":15.46347044,"ECCENTRICITY":0.00052323,"INCLINATION":97.3746,"RA_OF_ASC_NODE":283.4415,"ARG_OF_PERICENTER":172.7057,"MEAN_ANOMALY":187.427,"EPHEMERIS_TYPE":0,"NORAD_CAT_ID":60519,"ELEMENT_SET_NO":999,"REV_AT_EPOCH":10692,"BSTAR":0.00052986944,"MEAN_MOTION_DOT":0.00026129,"MEAN_MOTION_DDOT":0},{"OBJECT_NAME":"FLOCK 4BE-5","OBJECT_ID":"2024-149CV","EPOCH":"2026-07-16T04:32:11.526720","CLASSIFICATION_TYPE":"U","MEAN_MOTION":15.41060877,"ECCENTRICITY":0.00041429,"INCLINATION":97.384,"RA_OF_ASC_NODE":281.4834,"ARG_OF_PERICENTER":168.1835,"MEAN_ANOMALY":191.951,"EPHEMERIS_TYPE":0,"NORAD_CAT_ID":60559,"ELEMENT_SET_NO":999,"REV_AT_EPOCH":10674,"BSTAR":0.00022276939,"MEAN_MOTION_DOT":0.00009121,"MEAN_MOTION_DDOT":0}]}
